{
  "type": "FeatureCollection",
  "features": [
    {
      "type": "Feature",
      "properties": {
        "norad_id": 43567,
        "name": "GSAT0220 (GALILEO 24)",
        "group": "gnss",
        "lat": 37.683477981991686,
        "lon": 16.419409301700206,
        "alt_km": 23225.968434977975,
        "timestamp": "2025-12-21T11:31:43.098018+00:00",
        "meta_object_name": "GSAT0220 (GALILEO 24)",
        "meta_object_id": "2018-060D",
        "meta_epoch": "2025-12-19T15:28:13.770912",
        "meta_mean_motion": 1.70475932,
        "meta_eccentricity": 0.000607,
        "meta_inclination": 57.2288,
        "meta_ra_of_asc_node": 346.6359,
        "meta_arg_of_pericenter": 288.3471,
        "meta_mean_anomaly": 71.5983,
        "meta_ephemeris_type": 0,
        "meta_classification_type": "U",
        "meta_norad_cat_id": 43567,
        "meta_element_set_no": 999,
        "meta_rev_at_epoch": 4611,
        "meta_bstar": 0,
        "meta_mean_motion_dot": -7.2e-07,
        "meta_mean_motion_ddot": 0,
        "tle_line1": "1 43567U 18060D   25353.64460383 -.00000072  00000+0  00000+0 0  9990",
        "tle_line2": "2 43567  57.2288 346.6359 0006070 288.3471  71.5983  1.70475932 46114"
      },
      "geometry": {
        "type": "Point",
        "coordinates": [
          16.419409301700206,
          37.683477981991686
        ]
      }
    },
    {
      "type": "Feature",
      "properties": {
        "norad_id": 43581,
        "name": "BEIDOU-3 M5 (C23)",
        "group": "gnss",
        "lat": 49.877471666293076,
        "lon": -112.29023582463364,
        "alt_km": 21520.415318651678,
        "timestamp": "2025-12-21T11:31:43.098030+00:00",
        "meta_object_name": "BEIDOU-3 M5 (C23)",
        "meta_object_id": "2018-062A",
        "meta_epoch": "2025-12-20T20:06:28.310688",
        "meta_mean_motion": 1.86228979,
        "meta_eccentricity": 0.000194,
        "meta_inclination": 54.0899,
        "meta_ra_of_asc_node": 188.3678,
        "meta_arg_of_pericenter": 1.4371,
        "meta_mean_anomaly": 358.6165,
        "meta_ephemeris_type": 0,
        "meta_classification_type": "U",
        "meta_norad_cat_id": 43581,
        "meta_element_set_no": 999,
        "meta_rev_at_epoch": 5031,
        "meta_bstar": 0,
        "meta_mean_motion_dot": 9.5e-07,
        "meta_mean_motion_ddot": 0,
        "tle_line1": "1 43581U 18062A   25354.83782767  .00000095  00000+0  00000+0 0  9997",
        "tle_line2": "2 43581  54.0899 188.3678 0001940   1.4371 358.6165  1.86228979 50314"
      },
      "geometry": {
        "type": "Point",
        "coordinates": [
          -112.29023582463364,
          49.877471666293076
        ]
      }
    },
    {
      "type": "Feature",
      "properties": {
        "norad_id": 43582,
        "name": "BEIDOU-3 M6 (C24)",
        "group": "gnss",
        "lat": 13.835089992936775,
        "lon": -1.94646753221516,
        "alt_km": 21535.680815361124,
        "timestamp": "2025-12-21T11:31:43.098042+00:00",
        "meta_object_name": "BEIDOU-3 M6 (C24)",
        "meta_object_id": "2018-062B",
        "meta_epoch": "2025-12-20T16:49:14.112192",
        "meta_mean_motion": 1.86229946,
        "meta_eccentricity": 0.0007856,
        "meta_inclination": 54.0894,
        "meta_ra_of_asc_node": 188.3615,
        "meta_arg_of_pericenter": 48.1727,
        "meta_mean_anomaly": 311.9483,
        "meta_ephemeris_type": 0,
        "meta_classification_type": "U",
        "meta_norad_cat_id": 43582,
        "meta_element_set_no": 999,
        "meta_rev_at_epoch": 5031,
        "meta_bstar": 0,
        "meta_mean_motion_dot": 9.6e-07,
        "meta_mean_motion_ddot": 0,
        "tle_line1": "1 43582U 18062B   25354.70085778  .00000096  00000+0  00000+0 0  9993",
        "tle_line2": "2 43582  54.0894 188.3615 0007856  48.1727 311.9483  1.86229946 50316"
      },
      "geometry": {
        "type": "Point",
        "coordinates": [
          -1.94646753221516,
          13.835089992936775
        ]
      }
    },
    {
      "type": "Feature",
      "properties": {
        "norad_id": 43602,
        "name": "BEIDOU-3 M12 (C26)",
        "group": "gnss",
        "lat": -19.55528914740262,
        "lon": 21.943483843031775,
        "alt_km": 21555.721180066772,
        "timestamp": "2025-12-21T11:31:43.098053+00:00",
        "meta_object_name": "BEIDOU-3 M12 (C26)",
        "meta_object_id": "2018-067A",
        "meta_epoch": "2025-12-19T13:33:24.239232",
        "meta_mean_motion": 1.86227856,
        "meta_eccentricity": 0.00092481,
        "meta_inclination": 54.1835,
        "meta_ra_of_asc_node": 187.1314,
        "meta_arg_of_pericenter": 41.3287,
        "meta_mean_anomaly": 318.7989,
        "meta_ephemeris_type": 0,
        "meta_classification_type": "U",
        "meta_norad_cat_id": 43602,
        "meta_element_set_no": 999,
        "meta_rev_at_epoch": 4977,
        "meta_bstar": 0,
        "meta_mean_motion_dot": 1.01e-06,
        "meta_mean_motion_ddot": 0,
        "tle_line1": "1 43602U 18067A   25353.56486388  .00000101  00000+0  00000+0 0  9993",
        "tle_line2": "2 43602  54.1835 187.1314 0009248  41.3287 318.7989  1.86227856 49773"
      },
      "geometry": {
        "type": "Point",
        "coordinates": [
          21.943483843031775,
          -19.55528914740262
        ]
      }
    },
    {
      "type": "Feature",
      "properties": {
        "norad_id": 43603,
        "name": "BEIDOU-3 M11 (C25)",
        "group": "gnss",
        "lat": 47.678103373551636,
        "lon": -45.48907645886368,
        "alt_km": 21519.075562924096,
        "timestamp": "2025-12-21T11:31:43.098065+00:00",
        "meta_object_name": "BEIDOU-3 M11 (C25)",
        "meta_object_id": "2018-067B",
        "meta_epoch": "2025-12-20T18:33:33.169248",
        "meta_mean_motion": 1.86227367,
        "meta_eccentricity": 0.0005646,
        "meta_inclination": 54.1805,
        "meta_ra_of_asc_node": 187.0544,
        "meta_arg_of_pericenter": 37.4014,
        "meta_mean_anomaly": 322.6884,
        "meta_ephemeris_type": 0,
        "meta_classification_type": "U",
        "meta_norad_cat_id": 43603,
        "meta_element_set_no": 999,
        "meta_rev_at_epoch": 4982,
        "meta_bstar": 0,
        "meta_mean_motion_dot": 9.5e-07,
        "meta_mean_motion_ddot": 0,
        "tle_line1": "1 43603U 18067B   25354.77330057  .00000095  00000+0  00000+0 0  9991",
        "tle_line2": "2 43603  54.1805 187.0544 0005646  37.4014 322.6884  1.86227367 49828"
      },
      "geometry": {
        "type": "Point",
        "coordinates": [
          -45.48907645886368,
          47.678103373551636
        ]
      }
    },
    {
      "type": "Feature",
      "properties": {
        "norad_id": 43622,
        "name": "BEIDOU-3 M13 (C32)",
        "group": "gnss",
        "lat": 29.97584608057264,
        "lon": -133.90358481780666,
        "alt_km": 21539.888053766288,
        "timestamp": "2025-12-21T11:31:43.098076+00:00",
        "meta_object_name": "BEIDOU-3 M13 (C32)",
        "meta_object_id": "2018-072A",
        "meta_epoch": "2025-12-19T15:44:25.442592",
        "meta_mean_motion": 1.86231092,
        "meta_eccentricity": 0.0006094,
        "meta_inclination": 56.4653,
        "meta_ra_of_asc_node": 68.5911,
        "meta_arg_of_pericenter": 298.8206,
        "meta_mean_anomaly": 61.1557,
        "meta_ephemeris_type": 0,
        "meta_classification_type": "U",
        "meta_norad_cat_id": 43622,
        "meta_element_set_no": 999,
        "meta_rev_at_epoch": 4931,
        "meta_bstar": 0,
        "meta_mean_motion_dot": -5.1e-07,
        "meta_mean_motion_ddot": 0,
        "tle_line1": "1 43622U 18072A   25353.65585003 -.00000051  00000+0  00000+0 0  9990",
        "tle_line2": "2 43622  56.4653  68.5911 0006094 298.8206  61.1557  1.86231092 49316"
      },
      "geometry": {
        "type": "Point",
        "coordinates": [
          -133.90358481780666,
          29.97584608057264
        ]
      }
    },
    {
      "type": "Feature",
      "properties": {
        "norad_id": 43623,
        "name": "BEIDOU-3 M14 (C33)",
        "group": "gnss",
        "lat": -42.02404748219267,
        "lon": -74.82351684167409,
        "alt_km": 21533.85939222573,
        "timestamp": "2025-12-21T11:31:43.098087+00:00",
        "meta_object_name": "BEIDOU-3 M14 (C33)",
        "meta_object_id": "2018-072B",
        "meta_epoch": "2025-12-20T14:17:08.126880",
        "meta_mean_motion": 1.86231125,
        "meta_eccentricity": 0.0003511,
        "meta_inclination": 56.4674,
        "meta_ra_of_asc_node": 68.5539,
        "meta_arg_of_pericenter": 328.3034,
        "meta_mean_anomaly": 31.7182,
        "meta_ephemeris_type": 0,
        "meta_classification_type": "U",
        "meta_norad_cat_id": 43623,
        "meta_element_set_no": 999,
        "meta_rev_at_epoch": 4932,
        "meta_bstar": 0,
        "meta_mean_motion_dot": -4.2e-07,
        "meta_mean_motion_ddot": 0,
        "tle_line1": "1 43623U 18072B   25354.59523295 -.00000042  00000+0  00000+0 0  9990",
        "tle_line2": "2 43623  56.4674  68.5539 0003511 328.3034  31.7182  1.86231125 49320"
      },
      "geometry": {
        "type": "Point",
        "coordinates": [
          -74.82351684167409,
          -42.02404748219267
        ]
      }
    }
  ]
}